{
    "links": {
        "self": "http://www.neowsapp.com/rest/v1/neo/3698497?api_key=iIulBulltgU6a56xZRHN4H3l9WmuAYTsLGpBGhQ2"
    },
    "id": "3698497",
    "neo_reference_id": "3698497",
    "name": "(2014 HR196)",
    "designation": "2014 HR196",
    "nasa_jpl_url": "http://ssd.jpl.nasa.gov/sbdb.cgi?sstr=3698497",
    "absolute_magnitude_h": 27.1,
    "estimated_diameter": {
        "kilometers": {
            "estimated_diameter_min": 0.0101054342,
            "estimated_diameter_max": 0.0225964377
        },
        "meters": {
            "estimated_diameter_min": 10.1054341542,
            "estimated_diameter_max": 22.5964377109
        },
        "miles": {
            "estimated_diameter_min": 0.0062792237,
            "estimated_diameter_max": 0.0140407711
        },
        "feet": {
            "estimated_diameter_min": 33.1543125905,
            "estimated_diameter_max": 74.1352966996
        }
    },
    "is_potentially_hazardous_asteroid": false,
    "close_approach_data": [
        {
            "close_approach_date": "2014-05-02",
            "close_approach_date_full": "2014-May-02 10:38",
            "epoch_date_close_approach": 1399027080000,
            "relative_velocity": {
                "kilometers_per_second": "5.3649497847",
                "kilometers_per_hour": "19313.8192248448",
                "miles_per_hour": "12000.8561733487"
            },
            "miss_distance": {
                "astronomical": "0.1220991496",
                "lunar": "47.4965691944",
                "kilometers": "18265772.708971352",
                "miles": "11349824.8629825776"
            },
            "orbiting_body": "Earth"
        }
    ],
    "orbital_data": {
        "orbit_id": "3",
        "orbit_determination_date": "2017-04-06 08:41:04",
        "first_observation_date": "2014-04-23",
        "last_observation_date": "2014-04-25",
        "data_arc_in_days": 2,
        "observations_used": 30,
        "orbit_uncertainty": "9",
        "minimum_orbit_intersection": ".12143",
        "jupiter_tisserand_invariant": "3.355",
        "epoch_osculation": "2456771.5",
        "eccentricity": ".5207883748629799",
        "semi_major_axis": "2.356694912065548",
        "inclination": "3.36107945733524",
        "ascending_node_longitude": "39.29337446569983",
        "orbital_period": "1321.458330756562",
        "perihelion_distance": "1.129355598763078",
        "perihelion_argument": "181.7358653575314",
        "aphelion_distance": "3.584034225368018",
        "perihelion_time": "2456778.669156220053",
        "mean_anomaly": "358.0469333166628",
        "mean_motion": ".2724262972362456",
        "equinox": "J2000",
        "orbit_class": {
            "orbit_class_type": "AMO",
            "orbit_class_description": "Near-Earth asteroid orbits similar to that of 1221 Amor",
            "orbit_class_range": "1.017 AU < q (perihelion) < 1.3 AU"
        }
    },
    "is_sentry_object": false
}